{
  "type": "FeatureCollection",
  "features": [
    {
      "type": "Feature",
      "properties": {
        "norad_id": 33805,
        "name": "COSMOS 2251 DEB",
        "group": "cosmos-2251-debris",
        "lat": -23.460918976221784,
        "lon": 119.0510483172356,
        "alt_km": 702.250475282035,
        "timestamp": "2025-12-22T22:44:21.371753+00:00",
        "meta_object_name": "COSMOS 2251 DEB",
        "meta_object_id": "1993-036AW",
        "meta_epoch": "2025-12-22T11:55:45.839712",
        "meta_mean_motion": 14.57876334,
        "meta_eccentricity": 0.0059931,
        "meta_inclination": 74.0312,
        "meta_ra_of_asc_node": 292.7687,
        "meta_arg_of_pericenter": 118.9132,
        "meta_mean_anomaly": 241.8063,
        "meta_ephemeris_type": 0,
        "meta_classification_type": "U",
        "meta_norad_cat_id": 33805,
        "meta_element_set_no": 999,
        "meta_rev_at_epoch": 89369,
        "meta_bstar": 0.00021641049,
        "meta_mean_motion_dot": 9.86e-06,
        "meta_mean_motion_ddot": 0,
        "tle_line1": "1 33805U 93036AW  25356.49705833  .00000986  00000+0  21641-3 0  9999",
        "tle_line2": "2 33805  74.0312 292.7687 0059931 118.9132 241.8063 14.57876334893698"
      },
      "geometry": {
        "type": "Point",
        "coordinates": [
          119.0510483172356,
          -23.460918976221784
        ]
      }
    },
    {
      "type": "Feature",
      "properties": {
        "norad_id": 33811,
        "name": "COSMOS 2251 DEB",
        "group": "cosmos-2251-debris",
        "lat": 17.02765958103054,
        "lon": -73.42266640242715,
        "alt_km": 529.576809379214,
        "timestamp": "2025-12-22T22:44:21.371763+00:00",
        "meta_object_name": "COSMOS 2251 DEB",
        "meta_object_id": "1993-036BC",
        "meta_epoch": "2025-12-22T05:38:23.917920",
        "meta_mean_motion": 15.05528174,
        "meta_eccentricity": 0.00309601,
        "meta_inclination": 73.8382,
        "meta_ra_of_asc_node": 282.9593,
        "meta_arg_of_pericenter": 1.9197,
        "meta_mean_anomaly": 115.9138,
        "meta_ephemeris_type": 0,
        "meta_classification_type": "U",
        "meta_norad_cat_id": 33811,
        "meta_element_set_no": 999,
        "meta_rev_at_epoch": 90161,
        "meta_bstar": 0.001172792,
        "meta_mean_motion_dot": 0.00017062,
        "meta_mean_motion_ddot": 0,
        "tle_line1": "1 33811U 93036BC  25356.23499905  .00017062  00000+0  11728-2 0  9995",
        "tle_line2": "2 33811  73.8382 282.9593 0030960   1.9197 115.9138 15.05528174901615"
      },
      "geometry": {
        "type": "Point",
        "coordinates": [
          -73.42266640242715,
          17.02765958103054
        ]
      }
    },
    {
      "type": "Feature",
      "properties": {
        "norad_id": 33815,
        "name": "COSMOS 2251 DEB",
        "group": "cosmos-2251-debris",
        "lat": -54.404557653858966,
        "lon": -1.1883704545743379,
        "alt_km": 510.1167707747445,
        "timestamp": "2025-12-22T22:44:21.371773+00:00",
        "meta_object_name": "COSMOS 2251 DEB",
        "meta_object_id": "1993-036BG",
        "meta_epoch": "2025-12-21T21:05:29.445792",
        "meta_mean_motion": 15.2031958,
        "meta_eccentricity": 0.00022339,
        "meta_inclination": 73.9522,
        "meta_ra_of_asc_node": 157.3523,
        "meta_arg_of_pericenter": 317.4488,
        "meta_mean_anomaly": 193.2224,
        "meta_ephemeris_type": 0,
        "meta_classification_type": "U",
        "meta_norad_cat_id": 33815,
        "meta_element_set_no": 999,
        "meta_rev_at_epoch": 88509,
        "meta_bstar": 0.0076381072,
        "meta_mean_motion_dot": 0.00170041,
        "meta_mean_motion_ddot": 0,
        "tle_line1": "1 33815U 93036BG  25355.87881303  .00170041  00000+0  76381-2 0  9998",
        "tle_line2": "2 33815  73.9522 157.3523 0002233 317.4488 193.2224 15.20319580885098"
      },
      "geometry": {
        "type": "Point",
        "coordinates": [
          -1.1883704545743379,
          -54.404557653858966
        ]
      }
    },
    {
      "type": "Feature",
      "properties": {
        "norad_id": 33816,
        "name": "COSMOS 2251 DEB",
        "group": "cosmos-2251-debris",
        "lat": 73.76065471172299,
        "lon": 170.78460973092828,
        "alt_km": 759.6523105085253,
        "timestamp": "2025-12-22T22:44:21.371784+00:00",
        "meta_object_name": "COSMOS 2251 DEB",
        "meta_object_id": "1993-036BH",
        "meta_epoch": "2025-12-21T16:47:19.907808",
        "meta_mean_motion": 13.81792785,
        "meta_eccentricity": 0.02642613,
        "meta_inclination": 73.8952,
        "meta_ra_of_asc_node": 90.2102,
        "meta_arg_of_pericenter": 101.3706,
        "meta_mean_anomaly": 261.7227,
        "meta_ephemeris_type": 0,
        "meta_classification_type": "U",
        "meta_norad_cat_id": 33816,
        "meta_element_set_no": 999,
        "meta_rev_at_epoch": 84797,
        "meta_bstar": 0.00029148726,
        "meta_mean_motion_dot": 3.85e-06,
        "meta_mean_motion_ddot": 0,
        "tle_line1": "1 33816U 93036BH  25355.69953597  .00000385  00000+0  29149-3 0  9998",
        "tle_line2": "2 33816  73.8952  90.2102 0264261 101.3706 261.7227 13.81792785847973"
      },
      "geometry": {
        "type": "Point",
        "coordinates": [
          170.78460973092828,
          73.76065471172299
        ]
      }
    },
    {
      "type": "Feature",
      "properties": {
        "norad_id": 33818,
        "name": "COSMOS 2251 DEB",
        "group": "cosmos-2251-debris",
        "lat": -63.36924362348133,
        "lon": -0.16718312721767054,
        "alt_km": 541.2579233038387,
        "timestamp": "2025-12-22T22:44:21.371795+00:00",
        "meta_object_name": "COSMOS 2251 DEB",
        "meta_object_id": "1993-036BK",
        "meta_epoch": "2025-12-22T04:58:01.208352",
        "meta_mean_motion": 15.1321841,
        "meta_eccentricity": 0.00248395,
        "meta_inclination": 74.0784,
        "meta_ra_of_asc_node": 146.6634,
        "meta_arg_of_pericenter": 131.173,
        "meta_mean_anomaly": 44.5484,
        "meta_ephemeris_type": 0,
        "meta_classification_type": "U",
        "meta_norad_cat_id": 33818,
        "meta_element_set_no": 999,
        "meta_rev_at_epoch": 90005,
        "meta_bstar": 0.0029389608,
        "meta_mean_motion_dot": 0.00052953,
        "meta_mean_motion_ddot": 0,
        "tle_line1": "1 33818U 93036BK  25356.20695843  .00052953  00000+0  29390-2 0  9990",
        "tle_line2": "2 33818  74.0784 146.6634 0024839 131.1730  44.5484 15.13218410900056"
      },
      "geometry": {
        "type": "Point",
        "coordinates": [
          -0.16718312721767054,
          -63.36924362348133
        ]
      }
    },
    {
      "type": "Feature",
      "properties": {
        "norad_id": 33819,
        "name": "COSMOS 2251 DEB",
        "group": "cosmos-2251-debris",
        "lat": -64.61188051340227,
        "lon": 154.68808521442605,
        "alt_km": 822.1812781136996,
        "timestamp": "2025-12-22T22:44:21.371805+00:00",
        "meta_object_name": "COSMOS 2251 DEB",
        "meta_object_id": "1993-036BL",
        "meta_epoch": "2025-12-22T13:08:52.892160",
        "meta_mean_motion": 14.32253651,
        "meta_eccentricity": 0.00894562,
        "meta_inclination": 74.1775,
        "meta_ra_of_asc_node": 192.1043,
        "meta_arg_of_pericenter": 50.4723,
        "meta_mean_anomaly": 340.8435,
        "meta_ephemeris_type": 0,
        "meta_classification_type": "U",
        "meta_norad_cat_id": 33819,
        "meta_element_set_no": 999,
        "meta_rev_at_epoch": 87636,
        "meta_bstar": 0.00047905739,
        "meta_mean_motion_dot": 1.326e-05,
        "meta_mean_motion_ddot": 0,
        "tle_line1": "1 33819U 93036BL  25356.54783440  .00001326  00000+0  47906-3 0  9991",
        "tle_line2": "2 33819  74.1775 192.1043 0089456  50.4723 340.8435 14.32253651876369"
      },
      "geometry": {
        "type": "Point",
        "coordinates": [
          154.68808521442605,
          -64.61188051340227
        ]
      }
    },
    {
      "type": "Feature",
      "properties": {
        "norad_id": 33821,
        "name": "COSMOS 2251 DEB",
        "group": "cosmos-2251-debris",
        "lat": 21.834597578957936,
        "lon": -65.34114000585153,
        "alt_km": 453.4268836070978,
        "timestamp": "2025-12-22T22:44:21.371830+00:00",
        "meta_object_name": "COSMOS 2251 DEB",
        "meta_object_id": "1993-036BN",
        "meta_epoch": "2025-12-22T07:53:33.422784",
        "meta_mean_motion": 15.25877738,
        "meta_eccentricity": 0.00499071,
        "meta_inclination": 74.0302,
        "meta_ra_of_asc_node": 122.556,
        "meta_arg_of_pericenter": 152.8966,
        "meta_mean_anomaly": 207.4858,
        "meta_ephemeris_type": 0,
        "meta_classification_type": "U",
        "meta_norad_cat_id": 33821,
        "meta_element_set_no": 999,
        "meta_rev_at_epoch": 75147,
        "meta_bstar": 0.0013349255,
        "meta_mean_motion_dot": 0.00035587,
        "meta_mean_motion_ddot": 0,
        "tle_line1": "1 33821U 93036BN  25356.32885906  .00035587  00000+0  13349-2 0  9999",
        "tle_line2": "2 33821  74.0302 122.5560 0049907 152.8966 207.4858 15.25877738751473"
      },
      "geometry": {
        "type": "Point",
        "coordinates": [
          -65.34114000585153,
          21.834597578957936
        ]
      }
    }
  ]
}